[{"OBJECT_NAME":"GEOSCAN 2 (RS92S2)","OBJECT_ID":"2025-155Q","EPOCH":"2026-03-09T23:01:48.939744","MEAN_MOTION":15.28709337,"ECCENTRICITY":0.00085277,"INCLINATION":97.4463,"RA_OF_ASC_NODE":37.5259,"ARG_OF_PERICENTER":140.9505,"MEAN_ANOMALY":219.2352,"EPHEMERIS_TYPE":0,"CLASSIFICATION_TYPE":"U","NORAD_CAT_ID":64890,"ELEMENT_SET_NO":999,"REV_AT_EPOCH":6561,"BSTAR":0.00051551761,"MEAN_MOTION_DOT":0.00014341,"MEAN_MOTION_DDOT":0},{"OBJECT_NAME":"STARLINK-35410","OBJECT_ID":"2025-232V","EPOCH":"2026-03-09T09:12:33.573888","MEAN_MOTION":15.30201096,"ECCENTRICITY":0.00012382,"INCLINATION":53.1578,"RA_OF_ASC_NODE":104.9751,"ARG_OF_PERICENTER":87.7374,"MEAN_ANOMALY":272.3769,"EPHEMERIS_TYPE":0,"CLASSIFICATION_TYPE":"U","NORAD_CAT_ID":66024,"ELEMENT_SET_NO":999,"REV_AT_EPOCH":2339,"BSTAR":0.00054528187,"MEAN_MOTION_DOT":0.00015825,"MEAN_MOTION_DDOT":0}]
